STARLINK-4141           
1 53138U 22083G   24008.56445700 -.00000039  00000+0  15627-4 0  9997
2 53138  53.2173 120.8044 0001453  79.8367 280.2789 15.08839539 82473
STARLINK-4185           
1 53139U 22083H   24008.55477038 -.00000212  00000+0  47651-5 0  9992
2 53139  53.2180 125.6632 0001522  99.8640 260.2524 15.08839452 82414
STARLINK-4170           
1 53140U 22083J   24008.55844796  .00001152  00000+0  90440-4 0  9999
2 53140  53.2171 125.6458 0001322  91.3835 268.7309 15.08842078 81784
STARLINK-4103           
1 53141U 22083K   24008.60629120  .00000528  00000+0  51244-4 0  9993
2 53141  53.2170 125.4325 0001486  63.4877 296.6267 15.08837848 81795
STARLINK-4101           
1 53142U 22083L   24008.61733217 -.00000005  00000+0  17802-4 0  9991
2 53142  53.2182 125.3779 0001609 107.9176 252.1991 15.08838041 82422
STARLINK-4102           
1 53143U 22083M   24008.60260511  .00000129  00000+0  26167-4 0  9993
2 53143  53.2178 125.4474 0001396 101.7444 258.3705 15.08845218 82429
STARLINK-4100           
1 53144U 22083N   24008.94485423  .00000341  00000+0  39535-4 0  9991
2 53144  53.2181 123.9220 0002488  75.4538 284.6730 15.08841808 82476
STARLINK-4106           
1 53145U 22083P   24008.59524756  .00000059  00000+0  21785-4 0  9990
2 53145  53.2161 125.4836 0001410  72.7227 287.3919 15.08844783 82423
STARLINK-4099           
1 53146U 22083Q   24008.60996938  .00000457  00000+0  46793-4 0  9996
2 53146  53.2171 125.4162 0001358  93.6421 266.4726 15.08841994 81790
STARLINK-4094           
1 53147U 22083R   24008.59156709  .00000319  00000+0  38116-4 0  9996
2 53147  53.2163 125.4985 0001341  79.8623 280.2521 15.08847126 82440
STARLINK-4066           
1 53148U 22083S   24008.53787729  .00002358  00000+0  24326-4 0  9996
2 53148  53.2184  95.2207 0001370  66.5961 293.5202 15.69699825 82211
STARLINK-4021           
1 53149U 22083T   24008.55299187  .00000083  00000+0  23295-4 0  9992
2 53149  53.2176 115.8762 0001575  75.4784 284.6383 15.08845492 82551
STARLINK-4038           
1 53150U 22083U   24008.57408774 -.00000463  00000+0 -11019-4 0  9995
2 53150  53.2178 115.5716 0001485 113.1847 246.9302 15.08843646 81922
STARLINK-4040           
1 53151U 22083V   24008.56304432  .00000192  00000+0  30176-4 0  9993
2 53151  53.2165 115.6259 0001462  68.6480 291.4668 15.08850137 82557
STARLINK-4045           
1 53152U 22083W   24008.50416893  .00001003  00000+0  81091-4 0  9997
2 53152  53.2180 115.8924 0001435  93.3800 266.7356 15.08841120 81917
STARLINK-4098           
1 53153U 22083X   24008.55937921 -.00000978  00000+0 -43371-4 0  9994
2 53153  53.2177 115.6425 0001360  81.2074 278.9072 15.08835713 82556
STARLINK-4077           
1 53154U 22083Y   24008.56672046 -.00004497  00000+0 -26439-3 0  9995
2 53154  53.2176 115.6125 0001490  73.2112 286.9043 15.08868714 81925
STARLINK-4088           
1 53155U 22083Z   24008.61824662  .00004214  00000+0  28260-3 0  9994
2 53155  53.2164 115.3803 0001586  66.5146 293.6013 15.08852631 82576
STARLINK-4087           
1 53156U 22083AA  24008.60719391  .00001332  00000+0  10175-3 0  9990
2 53156  53.2174 115.3020 0001358  95.0902 265.0245 15.08840814 82562
STARLINK-4093           
1 53157U 22083AB  24008.61089064  .00000697  00000+0  61880-4 0  9992
2 53157  53.2182 115.4141 0001618  92.1451 267.9726 15.08844471 82561
STARLINK-4054           
1 53158U 22083AC  24008.55569054  .00001275  00000+0  98170-4 0  9993
2 53158  53.2162 115.6611 0001643  73.5892 286.5281 15.08847209 82558
STARLINK-4111           
1 53159U 22083AD  24008.60352802  .00002280  00000+0  16128-3 0  9990
2 53159  53.2181 115.4453 0001406  82.7945 277.3207 15.08842872 81938
STARLINK-4096           
1 53160U 22083AE  24008.61457018  .00000731  00000+0  63996-4 0  9993
2 53160  53.2170 115.3960 0001363  82.1186 277.9960 15.08841489 81938
STARLINK-4055           
1 53161U 22083AF  24008.52625340 -.00000319  00000+0 -19706-5 0  9994
2 53161  53.2166 115.7922 0001318  84.7330 275.3812 15.08838533 82558
STARLINK-4114           
1 53162U 22083AG  24008.60818027 -.00001632  00000+0 -84515-4 0  9998
2 53162  53.2181 115.4367 0001624  67.5145 292.6019 15.08828016 81936
STARLINK-4104           
1 53163U 22083AH  24008.59987144  .00004654  00000+0  31046-3 0  9999
2 53163  53.2172 115.6082 0001353  82.8801 277.2345 15.08821818 81935
STARLINK-4116           
1 53164U 22083AJ  24008.59617218 -.00000166  00000+0  76407-5 0  9999
2 53164  53.2179 115.4813 0001463 101.0183 259.0974 15.08840477 81930
STARLINK-4090           
1 53165U 22083AK  24008.58144628  .00000400  00000+0  43224-4 0  9999
2 53165  53.2181 115.5381 0001400 105.6108 254.5038 15.08841727 82563
STARLINK-4110           
1 53166U 22083AL  24008.52256759  .00002685  00000+0  18679-3 0  9995
2 53166  53.2168 115.8064 0001399 111.9553 248.1588 15.08832396 82551
STARLINK-3683           
1 53167U 22083AM  24008.53314686 -.00000097  00000+0  11992-4 0  9999
2 53167  53.2171 100.7468 0001480 102.6972 257.4186 15.08842728 82120
STARLINK-4105           
1 53168U 22083AN  24008.51890406  .00013227  00000+0  84906-3 0  9999
2 53168  53.2177 115.8229 0001667  94.7696 265.3487 15.08776723 81920
STARLINK-4117           
1 53169U 22083AP  24008.57733901  .00003559  00000+0  24153-3 0  9997
2 53169  53.2155 100.8228 0001430  88.6392 271.4764 15.08848121 82764
STARLINK-4095           
1 53170U 22083AQ  24008.54694001  .00000572  00000+0  53998-4 0  9995
2 53170  53.2164 110.6489 0001354  84.8205 275.2942 15.08848092 82622
STARLINK-4052           
1 53171U 22083AR  24009.18403340  .00010644  00000+0  68621-3 0  9990
2 53171  53.2180  82.6019 0001806  67.9755 292.1429 15.08821141 83076
STARLINK-4299           
1 53172U 22083AS  24008.53957906  .00000528  00000+0  51287-4 0  9992
2 53172  53.2184 110.6474 0001856  64.7763 295.3422 15.08845350 82623
STARLINK-4300           
1 53173U 22083AT  24008.49359394  .00008029  00000+0  52246-3 0  9994
2 53173  53.2181  90.9314 0001809  75.7519 284.3674 15.08805684 82255
STARLINK-4205           
1 53174U 22083AU  24008.58147748  .00000001  00000+0  18151-4 0  9993
2 53174  53.2178 125.4781 0001566  88.0173 272.0999 15.08844890 82422
STARLINK-4292           
1 53175U 22083AV  24008.58420866 -.00000015  00000+0  17137-4 0  9998
2 53175  53.2164 125.5326 0001516  66.1199 293.9952 15.08844087 81781
STARLINK-4294           
1 53176U 22083AW  24008.52209705  .00000066  00000+0  22243-4 0  9999
2 53176  53.2164 100.7241 0001489  76.4941 283.6217 15.08846026 82125
STARLINK-4298           
1 53177U 22083AX  24008.48622646  .00000311  00000+0  37607-4 0  9991
2 53177  53.2168  90.9630 0001459  78.5142 281.6014 15.08846214 82251
STARLINK-4280           
1 53178U 22083AY  24008.57777047  .00000406  00000+0  43624-4 0  9999
2 53178  53.2187 115.5657 0001456  93.3081 266.8078 15.08837449 81917
STARLINK-4276           
1 53179U 22083AZ  24008.96780183  .00000180  00000+0  29372-4 0  9991
2 53179  53.2174  73.4094 0001443 110.0267 250.0880 15.08844380 83189
STARLINK-4258           
1 53180U 22083BA  24008.99359446 -.00001229  00000+0 -59123-4 0  9994
2 53180  53.2179  73.5645 0001346 114.6734 245.4399 15.08841857 83189
STARLINK-4273           
1 53181U 22083BB  24009.18494880  .00001015  00000+0  81892-4 0  9998
2 53181  53.2167  72.6327 0001695  68.7616 291.3557 15.08833498 83211
STARLINK-4278           
1 53182U 22083BC  24008.54878973  .00000679  00000+0  60740-4 0  9991
2 53182  53.2190  90.6852 0001640  72.0710 288.0461 15.08844537 82261
STARLINK-4268           
1 53183U 22083BD  24008.49081804  .00000527  00000+0  51191-4 0  9997
2 53183  53.2172  80.8614 0001425  99.0723 261.0430 15.08840796 83039
STARLINK-4257           
1 53184U 22083BE  24008.50043865  .00000368  00000+0  41207-4 0  9995
2 53184  53.2174  75.4950 0001397  83.8065 276.3086 15.08845550 82480
STARLINK-4391           
1 53189U 22084A   24008.75651441  .00000818  00000+0  68268-4 0  9999
2 53189  97.6557  71.8616 0001360  89.8294 270.3086 15.01260719 81328
STARLINK-4332           
1 53190U 22084B   24009.11729957  .00000791  00000+0  66197-4 0  9999
2 53190  97.6566  72.2359 0000154  16.2875 343.8354 15.01263419 81085
STARLINK-4369           
1 53191U 22084C   24008.74515383 -.00000403  00000+0 -26801-4 0  9994
2 53191  97.6555  71.8616 0002116 234.0671 126.0357 15.01258435 80646
STARLINK-4375           
1 53192U 22084D   24009.14321113 -.00000704  00000+0 -50168-4 0  9993
2 53192  97.6553  72.2539 0002554 243.5077 116.5886 15.01263633 81081
STARLINK-4351           
1 53193U 22084E   24008.74885895  .00000277  00000+0  26120-4 0  9995
2 53193  97.6552  71.8660 0000381 227.5006 132.6186 15.01260694 81661
STARLINK-4382           
1 53194U 22084F   24008.74700546 -.00000559  00000+0 -38897-4 0  9994
2 53194  97.6552  71.8637 0001357 246.1539 113.9543 15.01260505 80645
STARLINK-4404           
1 53195U 22084G   24008.80069841  .00000426  00000+0  37783-4 0  9992
2 53195  97.6571  71.9345 0003475 192.6037 167.5101 15.01259169 81320
STARLINK-4407           
1 53196U 22084H   24009.13580827  .00000292  00000+0  27335-4 0  9995
2 53196  97.6563  72.2635 0002797 201.8653 158.2452 15.01262161 81086
STARLINK-4403           
1 53197U 22084J   24009.13765921  .00000035  00000+0  73116-5 0  9990
2 53197  97.6561  72.2477 0003613 212.8477 147.2523 15.01262006 81088
STARLINK-4385           
1 53198U 22084K   24008.74144908  .00000674  00000+0  57063-4 0  9994
2 53198  97.6560  71.8579 0002858 231.9687 128.1280 15.01260710 81304
STARLINK-4395           
1 53199U 22084L   24009.13951310 -.00000226  00000+0 -12987-4 0  9993
2 53199  97.6551  72.2434 0001404 258.5961 101.5106 15.01261730 81086
STARLINK-4417           
1 53200U 22084M   24008.73614218  .00000294  00000+0  27473-4 0  9993
2 53200  97.6556  71.8628 0000661 259.9327 100.1823 15.01260743 81308
